[{"OBJECT_NAME":"STARLINK-3239","OBJECT_ID":"2021-115V","EPOCH":"2026-03-09T13:08:05.010144","MEAN_MOTION":15.08836358,"ECCENTRICITY":0.00012481,"INCLINATION":53.2175,"RA_OF_ASC_NODE":149.6935,"ARG_OF_PERICENTER":81.7072,"MEAN_ANOMALY":278.4062,"EPHEMERIS_TYPE":0,"CLASSIFICATION_TYPE":"U","NORAD_CAT_ID":49743,"ELEMENT_SET_NO":999,"REV_AT_EPOCH":23551,"BSTAR":-3.140838e-6,"MEAN_MOTION_DOT":-3.38e-6,"MEAN_MOTION_DDOT":0},{"OBJECT_NAME":"YAM-8","OBJECT_ID":"2025-052AW","EPOCH":"2026-03-09T17:32:32.161056","MEAN_MOTION":15.10898939,"ECCENTRICITY":0.00023693,"INCLINATION":97.7023,"RA_OF_ASC_NODE":329.5345,"ARG_OF_PERICENTER":152.6796,"MEAN_ANOMALY":207.4558,"EPHEMERIS_TYPE":0,"CLASSIFICATION_TYPE":"U","NORAD_CAT_ID":63254,"ELEMENT_SET_NO":999,"REV_AT_EPOCH":5424,"BSTAR":0.00047267461,"MEAN_MOTION_DOT":7.81e-5,"MEAN_MOTION_DDOT":0}]
